[{"OBJECT_NAME":"YAOGAN-30 08C","OBJECT_ID":"2020-076C","EPOCH":"2026-03-09T22:12:19.215360","MEAN_MOTION":15.02142271,"ECCENTRICITY":0.00075536,"INCLINATION":34.9972,"RA_OF_ASC_NODE":335.6323,"ARG_OF_PERICENTER":280.0853,"MEAN_ANOMALY":79.9003,"EPHEMERIS_TYPE":0,"CLASSIFICATION_TYPE":"U","NORAD_CAT_ID":46809,"ELEMENT_SET_NO":999,"REV_AT_EPOCH":29320,"BSTAR":0.00034959402,"MEAN_MOTION_DOT":4.668e-5,"MEAN_MOTION_DDOT":0},{"OBJECT_NAME":"STARLINK-34740","OBJECT_ID":"2025-158K","EPOCH":"2026-03-09T14:10:40.903680","MEAN_MOTION":15.0562128,"ECCENTRICITY":0.000283,"INCLINATION":97.6011,"RA_OF_ASC_NODE":294.0305,"ARG_OF_PERICENTER":93.1107,"MEAN_ANOMALY":267.0444,"EPHEMERIS_TYPE":0,"CLASSIFICATION_TYPE":"U","NORAD_CAT_ID":64941,"ELEMENT_SET_NO":999,"REV_AT_EPOCH":3528,"BSTAR":-0.00011046,"MEAN_MOTION_DOT":-1.653e-5,"MEAN_MOTION_DDOT":0}]
